ONEWEB-0199             
1 48234U 21031AA  24347.71197259 -.00000195  00000+0 -56008-3 0  9997
2 48234  87.9010  39.3557 0001757  93.5883 266.5448 13.14500236175818
ONEWEB-0203             
1 48235U 21031AB  24347.62635686 -.00000095  00000+0 -29077-3 0  9994
2 48235  87.9011  39.3750 0001504  88.6423 271.4879 13.14501845175810
ONEWEB-0197             
1 48236U 21031AC  24347.67789360  .00000184  00000+0  46191-3 0  9992
2 48236  87.9011  39.3748 0002151  98.2955 261.8418 13.14502316175731
ONEWEB-0194             
1 48237U 21031AD  24348.11319354 -.00000087  00000+0 -26844-3 0  9992
2 48237  87.9014  39.2826 0001683  89.9651 270.1671 13.14502506175960
ONEWEB-0193             
1 48238U 21031AE  24347.59621879  .00000229  00000+0  58310-3 0  9991
2 48238  87.9013  39.3935 0001642  99.4467 260.6848 13.14504520175843
ONEWEB-0191             
1 48239U 21031AF  24348.44461636 -.00000281  00000+0 -79246-3 0  9991
2 48239  87.9006  39.2030 0001942 101.3249 258.8098 13.14506708175818
ONEWEB-0195             
1 48240U 21031AG  24347.66043244 -.00000161  00000+0 -46969-3 0  9990
2 48240  87.9006  39.3573 0001593 113.0000 247.1298 13.14502514175690
ONEWEB-0201             
1 48241U 21031AH  24347.64934516 -.00000178  00000+0 -51436-3 0  9993
2 48241  87.9013  39.3999 0001777 104.9762 255.1564 13.14501697175921
